{"type": "FeatureCollection", "features": [ {"type": "Feature", "properties": {"norad_id": 66605, "name": "STARLINK-36052", "group": "last-30-days", "lat": -37.71629317804334, "lon": 11.125916626498453, "alt_km": 445.90461453832086, "timestamp": "2025-12-22T15:43:47.683498+00:00", "meta": {"OBJECT_NAME": "STARLINK-36052", "OBJECT_ID": "2025-270T", "EPOCH": "2025-12-22T06:00:02.000160", "MEAN_MOTION": 15.40626418, "ECCENTRICITY": 0.00022009, "INCLINATION": 43.0001, "RA_OF_ASC_NODE": 137.3746, "ARG_OF_PERICENTER": 266.4215, "MEAN_ANOMALY": 246.2549, "EPHEMERIS_TYPE": 0, "CLASSIFICATION_TYPE": "U", "NORAD_CAT_ID": 66605, "ELEMENT_SET_NO": 999, "REV_AT_EPOCH": 592, "BSTAR": 0.0015032913, "MEAN_MOTION_DOT": 0.0006286, "MEAN_MOTION_DDOT": 0}, "tle": {"line1": "1 66605U 25270T   25356.25002315  .00062860  00000+0  15033-2 0  9993", "line2": "2 66605  43.0001 137.3746 0002200 266.4215 246.2549 15.40626418  5929"}}, "geometry": {"type": "Point", "coordinates": [11.125916626498453, -37.71629317804334]}}, {"type": "Feature", "properties": {"norad_id": 66606, "name": "STARLINK-36063", "group": "last-30-days", "lat": 27.601669299430053, "lon": 168.77518022802292, "alt_km": 409.7378803851925, "timestamp": "2025-12-22T15:43:47.683508+00:00", "meta": {"OBJECT_NAME": "STARLINK-36063", "OBJECT_ID": "2025-270U", "EPOCH": "2025-12-19T11:48:20.511648", "MEAN_MOTION": 15.50662232, "ECCENTRICITY": 0.0001816, "INCLINATION": 42.9987, "RA_OF_ASC_NODE": 153.1595, "ARG_OF_PERICENTER": 282.0515, "MEAN_ANOMALY": 78.0141, "EPHEMERIS_TYPE": 0, "CLASSIFICATION_TYPE": "U", "NORAD_CAT_ID": 66606, "ELEMENT_SET_NO": 999, "REV_AT_EPOCH": 539, "BSTAR": 0.00079676, "MEAN_MOTION_DOT": 0.0004682, "MEAN_MOTION_DDOT": 0}, "tle": {"line1": "1 66606U 25270U   25353.49190407  .00046820  00000+0  79676-3 0  9999", "line2": "2 66606  42.9987 153.1595 0001816 282.0515  78.0141 15.50662232  5393"}}, "geometry": {"type": "Point", "coordinates": [168.77518022802292, 27.601669299430053]}}, {"type": "Feature", "properties": {"norad_id": 66607, "name": "STARLINK-35993", "group": "last-30-days", "lat": -41.46117052732835, "lon": 26.47233513737338, "alt_km": 445.9613140685924, "timestamp": "2025-12-22T15:43:47.683520+00:00", "meta": {"OBJECT_NAME": "STARLINK-35993", "OBJECT_ID": "2025-270V", "EPOCH": "2025-12-22T06:00:02.000160", "MEAN_MOTION": 15.40656122, "ECCENTRICITY": 0.00022094, "INCLINATION": 43, "RA_OF_ASC_NODE": 137.344, "ARG_OF_PERICENTER": 274.66, "MEAN_ANOMALY": 250.4037, "EPHEMERIS_TYPE": 0, "CLASSIFICATION_TYPE": "U", "NORAD_CAT_ID": 66607, "ELEMENT_SET_NO": 999, "REV_AT_EPOCH": 583, "BSTAR": 0.0012541529, "MEAN_MOTION_DOT": 0.00052371, "MEAN_MOTION_DDOT": 0}, "tle": {"line1": "1 66607U 25270V   25356.25002315  .00052371  00000+0  12542-2 0  9993", "line2": "2 66607  43.0000 137.3440 0002209 274.6600 250.4037 15.40656122  5833"}}, "geometry": {"type": "Point", "coordinates": [26.47233513737338, -41.46117052732835]}}, {"type": "Feature", "properties": {"norad_id": 66608, "name": "STARLINK-36036", "group": "last-30-days", "lat": 28.55528924032049, "lon": 170.373573255971, "alt_km": 409.7190908400444, "timestamp": "2025-12-22T15:43:47.683533+00:00", "meta": {"OBJECT_NAME": "STARLINK-36036", "OBJECT_ID": "2025-270W", "EPOCH": "2025-12-19T11:47:53.026080", "MEAN_MOTION": 15.50612484, "ECCENTRICITY": 0.0001538, "INCLINATION": 42.999, "RA_OF_ASC_NODE": 153.1562, "ARG_OF_PERICENTER": 266.4602, "MEAN_ANOMALY": 93.6082, "EPHEMERIS_TYPE": 0, "CLASSIFICATION_TYPE": "U", "NORAD_CAT_ID": 66608, "ELEMENT_SET_NO": 999, "REV_AT_EPOCH": 523, "BSTAR": 0.0010303, "MEAN_MOTION_DOT": 0.00060643, "MEAN_MOTION_DDOT": 0}, "tle": {"line1": "1 66608U 25270W   25353.49158595  .00060643  00000+0  10303-2 0  9993", "line2": "2 66608  42.9990 153.1562 0001538 266.4602  93.6082 15.50612484  5231"}}, "geometry": {"type": "Point", "coordinates": [170.373573255971, 28.55528924032049]}}, {"type": "Feature", "properties": {"norad_id": 66609, "name": "STARLINK-36034", "group": "last-30-days", "lat": 27.704703144119698, "lon": 168.94600500836626, "alt_km": 411.1591614472163, "timestamp": "2025-12-22T15:43:47.683543+00:00", "meta": {"OBJECT_NAME": "STARLINK-36034", "OBJECT_ID": "2025-270X", "EPOCH": "2025-12-20T17:09:50.095296", "MEAN_MOTION": 15.50362019, "ECCENTRICITY": 0.00048554, "INCLINATION": 42.9992, "RA_OF_ASC_NODE": 145.9955, "ARG_OF_PERICENTER": 131.0653, "MEAN_ANOMALY": 229.0628, "EPHEMERIS_TYPE": 0, "CLASSIFICATION_TYPE": "U", "NORAD_CAT_ID": 66609, "ELEMENT_SET_NO": 999, "REV_AT_EPOCH": 542, "BSTAR": 0.0011127835, "MEAN_MOTION_DOT": 0.00065002, "MEAN_MOTION_DDOT": 0}, "tle": {"line1": "1 66609U 25270X   25354.71516314  .00065002  00000+0  11128-2 0  9997", "line2": "2 66609  42.9992 145.9955 0004855 131.0653 229.0628 15.50362019  5425"}}, "geometry": {"type": "Point", "coordinates": [168.94600500836626, 27.704703144119698]}}, {"type": "Feature", "properties": {"norad_id": 66610, "name": "STARLINK-35680", "group": "last-30-days", "lat": -41.99615299095048, "lon": 59.90121573331211, "alt_km": 445.84823665015847, "timestamp": "2025-12-22T15:43:47.683553+00:00", "meta": {"OBJECT_NAME": "STARLINK-35680", "OBJECT_ID": "2025-270Y", "EPOCH": "2025-12-22T06:00:02.000160", "MEAN_MOTION": 15.40656295, "ECCENTRICITY": 0.00023075, "INCLINATION": 42.9998, "RA_OF_ASC_NODE": 137.2823, "ARG_OF_PERICENTER": 290.7596, "MEAN_ANOMALY": 259.1783, "EPHEMERIS_TYPE": 0, "CLASSIFICATION_TYPE": "U", "NORAD_CAT_ID": 66610, "ELEMENT_SET_NO": 999, "REV_AT_EPOCH": 603, "BSTAR": 0.0012881869, "MEAN_MOTION_DOT": 0.00053811, "MEAN_MOTION_DDOT": 0}, "tle": {"line1": "1 66610U 25270Y   25356.25002315  .00053811  00000+0  12882-2 0  9994", "line2": "2 66610  42.9998 137.2823 0002307 290.7596 259.1783 15.40656295  6035"}}, "geometry": {"type": "Point", "coordinates": [59.90121573331211, -41.99615299095048]}}, {"type": "Feature", "properties": {"norad_id": 66611, "name": "STARLINK-35583", "group": "last-30-days", "lat": -33.503637836441065, "lon": 89.61915188799985, "alt_km": 446.0049584528624, "timestamp": "2025-12-22T15:43:47.683563+00:00", "meta": {"OBJECT_NAME": "STARLINK-35583", "OBJECT_ID": "2025-270Z", "EPOCH": "2025-12-22T06:00:02.000160", "MEAN_MOTION": 15.40641957, "ECCENTRICITY": 0.000164, "INCLINATION": 42.9999, "RA_OF_ASC_NODE": 137.2223, "ARG_OF_PERICENTER": 276.6415, "MEAN_ANOMALY": 298.2148, "EPHEMERIS_TYPE": 0, "CLASSIFICATION_TYPE": "U", "NORAD_CAT_ID": 66611, "ELEMENT_SET_NO": 999, "REV_AT_EPOCH": 603, "BSTAR": 0.0013719032, "MEAN_MOTION_DOT": 0.00057325, "MEAN_MOTION_DDOT": 0}, "tle": {"line1": "1 66611U 25270Z   25356.25002315  .00057325  00000+0  13719-2 0  9999", "line2": "2 66611  42.9999 137.2223 0001640 276.6415 298.2148 15.40641957  6031"}}, "geometry": {"type": "Point", "coordinates": [89.61915188799985, -33.503637836441065]}}, {"type": "Feature", "properties": {"norad_id": 66612, "name": "STARLINK-36039", "group": "last-30-days", "lat": 34.94399110360136, "lon": -175.9354090116185, "alt_km": 439.3955808027504, "timestamp": "2025-12-22T15:43:47.683574+00:00", "meta": {"OBJECT_NAME": "STARLINK-36039", "OBJECT_ID": "2025-270AA", "EPOCH": "2025-12-22T03:02:09.628512", "MEAN_MOTION": 15.40704556, "ECCENTRICITY": 0.0001793, "INCLINATION": 43.0006, "RA_OF_ASC_NODE": 138.5371, "ARG_OF_PERICENTER": 273.4132, "MEAN_ANOMALY": 86.6519, "EPHEMERIS_TYPE": 0, "CLASSIFICATION_TYPE": "U", "NORAD_CAT_ID": 66612, "ELEMENT_SET_NO": 999, "REV_AT_EPOCH": 579, "BSTAR": 6.2807293e-05, "MEAN_MOTION_DOT": 2.321e-05, "MEAN_MOTION_DDOT": 0}, "tle": {"line1": "1 66612U 25270AA  25356.12650033  .00002321  00000+0  62807-4 0  9992", "line2": "2 66612  43.0006 138.5371 0001793 273.4132  86.6519 15.40704556  5799"}}, "geometry": {"type": "Point", "coordinates": [-175.9354090116185, 34.94399110360136]}}, {"type": "Feature", "properties": {"norad_id": 66613, "name": "STARLINK-36037", "group": "last-30-days", "lat": 42.50744277727342, "lon": -144.9528013654775, "alt_km": 437.7645666591534, "timestamp": "2025-12-22T15:43:47.683584+00:00", "meta": {"OBJECT_NAME": "STARLINK-36037", "OBJECT_ID": "2025-270AB", "EPOCH": "2025-12-21T11:22:10.567488", "MEAN_MOTION": 15.40728039, "ECCENTRICITY": 0.00012938, "INCLINATION": 42.9987, "RA_OF_ASC_NODE": 142.2364, "ARG_OF_PERICENTER": 234.5292, "MEAN_ANOMALY": 125.5444, "EPHEMERIS_TYPE": 0, "CLASSIFICATION_TYPE": "U", "NORAD_CAT_ID": 66613, "ELEMENT_SET_NO": 999, "REV_AT_EPOCH": 569, "BSTAR": 0.00091489288, "MEAN_MOTION_DOT": 0.0003814, "MEAN_MOTION_DDOT": 0}, "tle": {"line1": "1 66613U 25270AB  25355.47373342  .00038140  00000+0  91489-3 0  9990", "line2": "2 66613  42.9987 142.2364 0001293 234.5292 125.5444 15.40728039  5691"}}, "geometry": {"type": "Point", "coordinates": [-144.9528013654775, 42.50744277727342]}}, {"type": "Feature", "properties": {"norad_id": 66614, "name": "STARLINK-36040", "group": "last-30-days", "lat": -9.619475659409385, "lon": -34.3641180079501, "alt_km": 444.7687216516879, "timestamp": "2025-12-22T15:43:47.683593+00:00", "meta": {"OBJECT_NAME": "STARLINK-36040", "OBJECT_ID": "2025-270AC", "EPOCH": "2025-12-22T02:26:40.684128", "MEAN_MOTION": 15.40720324, "ECCENTRICITY": 0.00014656, "INCLINATION": 42.9999, "RA_OF_ASC_NODE": 138.3474, "ARG_OF_PERICENTER": 283.7426, "MEAN_ANOMALY": 76.3268, "EPHEMERIS_TYPE": 0, "CLASSIFICATION_TYPE": "U", "NORAD_CAT_ID": 66614, "ELEMENT_SET_NO": 999, "REV_AT_EPOCH": 563, "BSTAR": 0.0014723915, "MEAN_MOTION_DOT": 0.00061743, "MEAN_MOTION_DDOT": 0}, "tle": {"line1": "1 66614U 25270AC  25356.10185977  .00061743  00000+0  14724-2 0  9998", "line2": "2 66614  42.9999 138.3474 0001465 283.7426  76.3268 15.40720324  5639"}}, "geometry": {"type": "Point", "coordinates": [-34.3641180079501, -9.619475659409385]}}]}